[{"OBJECT_NAME":"STARLINK-31537","OBJECT_ID":"2024-060T","EPOCH":"2026-02-09T01:51:58.252320","MEAN_MOTION":15.27571843,"ECCENTRICITY":4.153e-5,"INCLINATION":42.9986,"RA_OF_ASC_NODE":61.7294,"ARG_OF_PERICENTER":306.5737,"MEAN_ANOMALY":53.5076,"EPHEMERIS_TYPE":0,"CLASSIFICATION_TYPE":"U","NORAD_CAT_ID":59365,"ELEMENT_SET_NO":999,"REV_AT_EPOCH":10568,"BSTAR":7.5051056e-5,"MEAN_MOTION_DOT":1.804e-5,"MEAN_MOTION_DDOT":0},{"OBJECT_NAME":"STARLINK-31451","OBJECT_ID":"2024-060U","EPOCH":"2026-02-09T02:17:39.657696","MEAN_MOTION":15.27575949,"ECCENTRICITY":8.283e-5,"INCLINATION":43.0005,"RA_OF_ASC_NODE":60.9995,"ARG_OF_PERICENTER":190.0151,"MEAN_ANOMALY":170.0684,"EPHEMERIS_TYPE":0,"CLASSIFICATION_TYPE":"U","NORAD_CAT_ID":59366,"ELEMENT_SET_NO":999,"REV_AT_EPOCH":10569,"BSTAR":1.2960743e-5,"MEAN_MOTION_DOT":9.5e-7,"MEAN_MOTION_DDOT":0},{"OBJECT_NAME":"STARLINK-31428","OBJECT_ID":"2024-060V","EPOCH":"2026-02-09T02:34:18.592896","MEAN_MOTION":15.27584359,"ECCENTRICITY":7.505e-5,"INCLINATION":43.0027,"RA_OF_ASC_NODE":61.0882,"ARG_OF_PERICENTER":228.5729,"MEAN_ANOMALY":131.5059,"EPHEMERIS_TYPE":0,"CLASSIFICATION_TYPE":"U","NORAD_CAT_ID":59367,"ELEMENT_SET_NO":999,"REV_AT_EPOCH":10569,"BSTAR":0.00015688202,"MEAN_MOTION_DOT":4.058e-5,"MEAN_MOTION_DDOT":0},{"OBJECT_NAME":"STARLINK-31419","OBJECT_ID":"2024-060W","EPOCH":"2026-02-09T02:43:33.884832","MEAN_MOTION":15.27556063,"ECCENTRICITY":0.00011511,"INCLINATION":43.0038,"RA_OF_ASC_NODE":61.136,"ARG_OF_PERICENTER":223.6576,"MEAN_ANOMALY":136.4184,"EPHEMERIS_TYPE":0,"CLASSIFICATION_TYPE":"U","NORAD_CAT_ID":59368,"ELEMENT_SET_NO":999,"REV_AT_EPOCH":10569,"BSTAR":-0.00011369819,"MEAN_MOTION_DOT":-3.387e-5,"MEAN_MOTION_DDOT":0},{"OBJECT_NAME":"STARLINK-31583","OBJECT_ID":"2024-060X","EPOCH":"2026-02-09T01:48:17.459712","MEAN_MOTION":15.27575241,"ECCENTRICITY":0.00012478,"INCLINATION":43.0038,"RA_OF_ASC_NODE":50.4647,"ARG_OF_PERICENTER":267.6631,"MEAN_ANOMALY":92.4077,"EPHEMERIS_TYPE":0,"CLASSIFICATION_TYPE":"U","NORAD_CAT_ID":59369,"ELEMENT_SET_NO":999,"REV_AT_EPOCH":10581,"BSTAR":0.00032601967,"MEAN_MOTION_DOT":8.719e-5,"MEAN_MOTION_DDOT":0},{"OBJECT_NAME":"STARLINK-31461","OBJECT_ID":"2024-060Y","EPOCH":"2026-02-09T02:04:56.515008","MEAN_MOTION":15.27584146,"ECCENTRICITY":0.00010247,"INCLINATION":43.0034,"RA_OF_ASC_NODE":50.5481,"ARG_OF_PERICENTER":215.5717,"MEAN_ANOMALY":144.5067,"EPHEMERIS_TYPE":0,"CLASSIFICATION_TYPE":"U","NORAD_CAT_ID":59370,"ELEMENT_SET_NO":999,"REV_AT_EPOCH":10575,"BSTAR":5.1366919e-5,"MEAN_MOTION_DOT":1.152e-5,"MEAN_MOTION_DDOT":0},{"OBJECT_NAME":"STARLINK-31641","OBJECT_ID":"2024-062A","EPOCH":"2026-02-09T07:01:20.949312","MEAN_MOTION":15.30198023,"ECCENTRICITY":0.00013855,"INCLINATION":53.1612,"RA_OF_ASC_NODE":30.4124,"ARG_OF_PERICENTER":102.9474,"MEAN_ANOMALY":257.1682,"EPHEMERIS_TYPE":0,"CLASSIFICATION_TYPE":"U","NORAD_CAT_ID":59374,"ELEMENT_SET_NO":999,"REV_AT_EPOCH":10527,"BSTAR":1.0668532e-5,"MEAN_MOTION_DOT":-4.3e-7,"MEAN_MOTION_DDOT":0},{"OBJECT_NAME":"STARLINK-31430","OBJECT_ID":"2024-062B","EPOCH":"2026-02-09T06:50:43.116864","MEAN_MOTION":15.30192545,"ECCENTRICITY":0.0001603,"INCLINATION":53.1622,"RA_OF_ASC_NODE":30.3605,"ARG_OF_PERICENTER":109.5057,"MEAN_ANOMALY":250.6117,"EPHEMERIS_TYPE":0,"CLASSIFICATION_TYPE":"U","NORAD_CAT_ID":59375,"ELEMENT_SET_NO":999,"REV_AT_EPOCH":10528,"BSTAR":-2.7214123e-5,"MEAN_MOTION_DOT":-1.165e-5,"MEAN_MOTION_DDOT":0},{"OBJECT_NAME":"STARLINK-31695","OBJECT_ID":"2024-062C","EPOCH":"2026-02-09T05:27:53.159904","MEAN_MOTION":15.30206122,"ECCENTRICITY":0.00014051,"INCLINATION":53.1613,"RA_OF_ASC_NODE":27.8744,"ARG_OF_PERICENTER":110.9013,"MEAN_ANOMALY":249.2138,"EPHEMERIS_TYPE":0,"CLASSIFICATION_TYPE":"U","NORAD_CAT_ID":59376,"ELEMENT_SET_NO":999,"REV_AT_EPOCH":10527,"BSTAR":-2.8755407e-5,"MEAN_MOTION_DOT":-1.211e-5,"MEAN_MOTION_DDOT":0},{"OBJECT_NAME":"STARLINK-31716","OBJECT_ID":"2024-062D","EPOCH":"2026-02-09T01:31:56.081856","MEAN_MOTION":15.30199796,"ECCENTRICITY":0.00010909,"INCLINATION":53.1613,"RA_OF_ASC_NODE":339.9807,"ARG_OF_PERICENTER":111.0833,"MEAN_ANOMALY":249.0284,"EPHEMERIS_TYPE":0,"CLASSIFICATION_TYPE":"U","NORAD_CAT_ID":59377,"ELEMENT_SET_NO":999,"REV_AT_EPOCH":10592,"BSTAR":-6.9011275e-5,"MEAN_MOTION_DOT":-2.402e-5,"MEAN_MOTION_DDOT":0},{"OBJECT_NAME":"STARLINK-31710","OBJECT_ID":"2024-062E","EPOCH":"2026-02-09T05:43:05.149920","MEAN_MOTION":15.30194664,"ECCENTRICITY":0.00014335,"INCLINATION":53.1621,"RA_OF_ASC_NODE":27.9335,"ARG_OF_PERICENTER":111.0943,"MEAN_ANOMALY":249.0211,"EPHEMERIS_TYPE":0,"CLASSIFICATION_TYPE":"U","NORAD_CAT_ID":59378,"ELEMENT_SET_NO":999,"REV_AT_EPOCH":10527,"BSTAR":3.3718473e-5,"MEAN_MOTION_DOT":6.39e-6,"MEAN_MOTION_DDOT":0},{"OBJECT_NAME":"STARLINK-31698","OBJECT_ID":"2024-062F","EPOCH":"2026-02-09T05:23:20.134176","MEAN_MOTION":15.30196053,"ECCENTRICITY":0.00015263,"INCLINATION":53.1617,"RA_OF_ASC_NODE":27.8657,"ARG_OF_PERICENTER":80.9569,"MEAN_ANOMALY":279.1605,"EPHEMERIS_TYPE":0,"CLASSIFICATION_TYPE":"U","NORAD_CAT_ID":59379,"ELEMENT_SET_NO":999,"REV_AT_EPOCH":10527,"BSTAR":1.132351e-6,"MEAN_MOTION_DOT":-3.26e-6,"MEAN_MOTION_DDOT":0},{"OBJECT_NAME":"STARLINK-31680","OBJECT_ID":"2024-062G","EPOCH":"2026-02-09T06:59:49.670304","MEAN_MOTION":15.30197942,"ECCENTRICITY":0.00013751,"INCLINATION":53.1619,"RA_OF_ASC_NODE":30.4015,"ARG_OF_PERICENTER":91.5073,"MEAN_ANOMALY":268.6086,"EPHEMERIS_TYPE":0,"CLASSIFICATION_TYPE":"U","NORAD_CAT_ID":59380,"ELEMENT_SET_NO":999,"REV_AT_EPOCH":10524,"BSTAR":-6.555483e-6,"MEAN_MOTION_DOT":-5.53e-6,"MEAN_MOTION_DDOT":0},{"OBJECT_NAME":"STARLINK-31713","OBJECT_ID":"2024-062H","EPOCH":"2026-02-09T06:41:36.421728","MEAN_MOTION":15.30199231,"ECCENTRICITY":0.00017289,"INCLINATION":53.1612,"RA_OF_ASC_NODE":30.3274,"ARG_OF_PERICENTER":100.339,"MEAN_ANOMALY":259.7805,"EPHEMERIS_TYPE":0,"CLASSIFICATION_TYPE":"U","NORAD_CAT_ID":59381,"ELEMENT_SET_NO":999,"REV_AT_EPOCH":10524,"BSTAR":-3.495668e-5,"MEAN_MOTION_DOT":-1.395e-5,"MEAN_MOTION_DDOT":0},{"OBJECT_NAME":"STARLINK-31705","OBJECT_ID":"2024-062J","EPOCH":"2026-02-09T05:38:31.692192","MEAN_MOTION":15.30196197,"ECCENTRICITY":0.0001399,"INCLINATION":53.1616,"RA_OF_ASC_NODE":27.9166,"ARG_OF_PERICENTER":98.2228,"MEAN_ANOMALY":261.8932,"EPHEMERIS_TYPE":0,"CLASSIFICATION_TYPE":"U","NORAD_CAT_ID":59382,"ELEMENT_SET_NO":999,"REV_AT_EPOCH":10527,"BSTAR":4.571644e-6,"MEAN_MOTION_DOT":-2.24e-6,"MEAN_MOTION_DDOT":0},{"OBJECT_NAME":"STARLINK-31715","OBJECT_ID":"2024-062L","EPOCH":"2026-02-09T06:48:16.334496","MEAN_MOTION":15.30194475,"ECCENTRICITY":0.00014712,"INCLINATION":53.161,"RA_OF_ASC_NODE":27.5104,"ARG_OF_PERICENTER":101.9279,"MEAN_ANOMALY":258.1887,"EPHEMERIS_TYPE":0,"CLASSIFICATION_TYPE":"U","NORAD_CAT_ID":59384,"ELEMENT_SET_NO":999,"REV_AT_EPOCH":10532,"BSTAR":-1.9990604e-5,"MEAN_MOTION_DOT":-9.51e-6,"MEAN_MOTION_DDOT":0}]
