STARLINK-31537          
1 59365U 24060T   26040.07775755  .00001804  00000+0  75051-4 0  9999
2 59365  42.9986  61.7294 0000415 306.5737  53.5076 15.27571843105687
STARLINK-31451          
1 59366U 24060U   26040.09559789  .00000095  00000+0  12961-4 0  9991
2 59366  43.0005  60.9995 0000828 190.0151 170.0684 15.27575949105697
STARLINK-31428          
1 59367U 24060V   26040.10715964  .00004058  00000+0  15688-3 0  9994
2 59367  43.0027  61.0882 0000750 228.5729 131.5059 15.27584359105694
STARLINK-31419          
1 59368U 24060W   26040.11358663 -.00003387  00000+0 -11370-3 0  9995
2 59368  43.0038  61.1360 0001151 223.6576 136.4184 15.27556063105695
STARLINK-31583          
1 59369U 24060X   26040.07520208  .00008719  00000+0  32602-3 0  9990
2 59369  43.0038  50.4647 0001247 267.6631  92.4077 15.27575241105816
STARLINK-31461          
1 59370U 24060Y   26040.08676522  .00001152  00000+0  51367-4 0  9998
2 59370  43.0034  50.5481 0001024 215.5717 144.5067 15.27584146105756
STARLINK-31641          
1 59374U 24062A   26040.29260358 -.00000043  00000+0  10669-4 0  9992
2 59374  53.1612  30.4124 0001385 102.9474 257.1682 15.30198023105274
STARLINK-31430          
1 59375U 24062B   26040.28522126 -.00001165  00000+0 -27214-4 0  9997
2 59375  53.1622  30.3605 0001603 109.5057 250.6117 15.30192545105287
STARLINK-31695          
1 59376U 24062C   26040.22769861 -.00001211  00000+0 -28755-4 0  9994
2 59376  53.1613  27.8744 0001405 110.9013 249.2138 15.30206122105274
STARLINK-31716          
1 59377U 24062D   26040.06384354 -.00002402  00000+0 -69011-4 0  9990
2 59377  53.1613 339.9807 0001090 111.0833 249.0284 15.30199796105924
STARLINK-31710          
1 59378U 24062E   26040.23825405  .00000639  00000+0  33718-4 0  9990
2 59378  53.1621  27.9335 0001433 111.0943 249.0211 15.30194664105274
STARLINK-31698          
1 59379U 24062F   26040.22453859 -.00000326  00000+0  11324-5 0  9994
2 59379  53.1617  27.8657 0001526  80.9569 279.1605 15.30196053105272
STARLINK-31680          
1 59380U 24062G   26040.29154711 -.00000553  00000+0 -65555-5 0  9996
2 59380  53.1619  30.4015 0001375  91.5073 268.6086 15.30197942105245
STARLINK-31713          
1 59381U 24062H   26040.27889377 -.00001395  00000+0 -34957-4 0  9994
2 59381  53.1612  30.3274 0001728 100.3390 259.7805 15.30199231105241
STARLINK-31705          
1 59382U 24062J   26040.23508903 -.00000224  00000+0  45716-5 0  9999
2 59382  53.1616  27.9166 0001399  98.2228 261.8932 15.30196197105273
STARLINK-31715          
1 59384U 24062L   26040.28352239 -.00000951  00000+0 -19991-4 0  9998
2 59384  53.1610  27.5104 0001471 101.9279 258.1887 15.30194475105327
